ONEWEB-0349             
1 49281U 21090C   25173.45876197  .00000048  00000+0  86379-4 0  9999
2 49281  87.9263 346.0979 0001942  92.6976 267.4379 13.20773014182348
ONEWEB-0353             
1 49282U 21090D   25172.48851932 -.00000113  00000+0 -33833-3 0  9993
2 49282  87.9029   1.4686 0001857  96.9363 263.1978 13.14501712180194
ONEWEB-0356             
1 49283U 21090E   25173.45717255  .00000074  00000+0  14951-3 0  9995
2 49283  87.9261 346.0891 0000914  95.0114 265.1124 13.20774182182340
ONEWEB-0358             
1 49284U 21090F   25173.48716919  .00000032  00000+0  46562-4 0  9993
2 49284  87.9260 346.0732 0001759  87.9238 272.2097 13.20772215183073
ONEWEB-0359             
1 49285U 21090G   25173.18100455 -.00000767  00000+0 -19185-2 0  9999
2 49285  87.9259 346.1463 0001809  81.2004 278.9334 13.20761673183015
ONEWEB-0360             
1 49286U 21090H   25172.86848835  .00000073  00000+0  14641-3 0  9996
2 49286  87.9263 346.2146 0001901  87.7116 272.4235 13.20772595183573
ONEWEB-0361             
1 49287U 21090J   25173.45560361  .00000118  00000+0  25855-3 0  9997
2 49287  87.9260 346.0930 0001669  93.4869 266.6455 13.20772961182812
ONEWEB-0362             
1 49288U 21090K   25173.57817818  .00000122  00000+0  27206-3 0  9990
2 49288  87.9216  16.4789 0002037  86.3533 273.7833 13.19725779180307
